[{"OBJECT_NAME":"STARLINK-32184","OBJECT_ID":"2024-155U","EPOCH":"2026-03-05T14:31:21.167040","MEAN_MOTION":15.30190635,"ECCENTRICITY":0.00011654,"INCLINATION":53.1609,"RA_OF_ASC_NODE":148.7735,"ARG_OF_PERICENTER":102.3216,"MEAN_ANOMALY":257.7916,"EPHEMERIS_TYPE":0,"CLASSIFICATION_TYPE":"U","NORAD_CAT_ID":60942,"ELEMENT_SET_NO":999,"REV_AT_EPOCH":8566,"BSTAR":-5.8001e-6,"MEAN_MOTION_DOT":-5.31e-6,"MEAN_MOTION_DDOT":0},{"OBJECT_NAME":"STARLINK-32288","OBJECT_ID":"2024-155V","EPOCH":"2026-03-05T14:45:02.386944","MEAN_MOTION":15.30185043,"ECCENTRICITY":9.976e-5,"INCLINATION":53.161,"RA_OF_ASC_NODE":148.8237,"ARG_OF_PERICENTER":98.9306,"MEAN_ANOMALY":261.1808,"EPHEMERIS_TYPE":0,"CLASSIFICATION_TYPE":"U","NORAD_CAT_ID":60943,"ELEMENT_SET_NO":999,"REV_AT_EPOCH":8566,"BSTAR":-2.5645453e-5,"MEAN_MOTION_DOT":-1.118e-5,"MEAN_MOTION_DDOT":0},{"OBJECT_NAME":"STARLINK-32276","OBJECT_ID":"2024-155W","EPOCH":"2026-03-05T14:40:28.715808","MEAN_MOTION":15.30182787,"ECCENTRICITY":8.705e-5,"INCLINATION":53.1618,"RA_OF_ASC_NODE":148.8047,"ARG_OF_PERICENTER":122.6311,"MEAN_ANOMALY":237.4774,"EPHEMERIS_TYPE":0,"CLASSIFICATION_TYPE":"U","NORAD_CAT_ID":60944,"ELEMENT_SET_NO":999,"REV_AT_EPOCH":8576,"BSTAR":-2.3238462e-5,"MEAN_MOTION_DOT":-1.047e-5,"MEAN_MOTION_DDOT":0},{"OBJECT_NAME":"STARLINK-11289 [DTC]","OBJECT_ID":"2024-158B","EPOCH":"2026-03-05T15:41:41.035488","MEAN_MOTION":15.69756731,"ECCENTRICITY":6.97e-5,"INCLINATION":53.1619,"RA_OF_ASC_NODE":300.9506,"ARG_OF_PERICENTER":293.338,"MEAN_ANOMALY":66.7565,"EPHEMERIS_TYPE":0,"CLASSIFICATION_TYPE":"U","NORAD_CAT_ID":60991,"ELEMENT_SET_NO":999,"REV_AT_EPOCH":8696,"BSTAR":-0.0001190369,"MEAN_MOTION_DOT":-0.00015011,"MEAN_MOTION_DDOT":0},{"OBJECT_NAME":"STARLINK-11282 [DTC]","OBJECT_ID":"2024-158C","EPOCH":"2026-03-05T03:49:24.250080","MEAN_MOTION":15.69700617,"ECCENTRICITY":9.224e-5,"INCLINATION":53.1594,"RA_OF_ASC_NODE":303.5548,"ARG_OF_PERICENTER":180.3194,"MEAN_ANOMALY":179.7824,"EPHEMERIS_TYPE":0,"CLASSIFICATION_TYPE":"U","NORAD_CAT_ID":60992,"ELEMENT_SET_NO":999,"REV_AT_EPOCH":8688,"BSTAR":-1.3193389e-5,"MEAN_MOTION_DOT":-2.185e-5,"MEAN_MOTION_DDOT":0},{"OBJECT_NAME":"STARLINK-11283 [DTC]","OBJECT_ID":"2024-158D","EPOCH":"2026-03-05T01:35:30.326208","MEAN_MOTION":15.69684551,"ECCENTRICITY":0.00010833,"INCLINATION":53.1579,"RA_OF_ASC_NODE":304.4089,"ARG_OF_PERICENTER":119.6691,"MEAN_ANOMALY":240.4435,"EPHEMERIS_TYPE":0,"CLASSIFICATION_TYPE":"U","NORAD_CAT_ID":60993,"ELEMENT_SET_NO":999,"REV_AT_EPOCH":8686,"BSTAR":-4.0999e-7,"MEAN_MOTION_DOT":-6.38e-6,"MEAN_MOTION_DDOT":0},{"OBJECT_NAME":"STARLINK-11267 [DTC]","OBJECT_ID":"2024-158E","EPOCH":"2026-03-05T01:28:25.538880","MEAN_MOTION":15.69695526,"ECCENTRICITY":7.25e-5,"INCLINATION":53.1571,"RA_OF_ASC_NODE":304.3829,"ARG_OF_PERICENTER":92.9051,"MEAN_ANOMALY":267.205,"EPHEMERIS_TYPE":0,"CLASSIFICATION_TYPE":"U","NORAD_CAT_ID":60994,"ELEMENT_SET_NO":999,"REV_AT_EPOCH":8686,"BSTAR":-2.0182532e-5,"MEAN_MOTION_DOT":-3.03e-5,"MEAN_MOTION_DDOT":0},{"OBJECT_NAME":"STARLINK-11269 [DTC]","OBJECT_ID":"2024-158F","EPOCH":"2026-03-05T15:06:31.340160","MEAN_MOTION":15.69724183,"ECCENTRICITY":6.272e-5,"INCLINATION":53.1575,"RA_OF_ASC_NODE":301.5211,"ARG_OF_PERICENTER":74.8098,"MEAN_ANOMALY":285.2989,"EPHEMERIS_TYPE":0,"CLASSIFICATION_TYPE":"U","NORAD_CAT_ID":60995,"ELEMENT_SET_NO":999,"REV_AT_EPOCH":8694,"BSTAR":-4.9306271e-5,"MEAN_MOTION_DOT":-6.56e-5,"MEAN_MOTION_DDOT":0},{"OBJECT_NAME":"STARLINK-11281 [DTC]","OBJECT_ID":"2024-158G","EPOCH":"2026-03-05T14:59:27.017664","MEAN_MOTION":15.69706661,"ECCENTRICITY":0.00014268,"INCLINATION":53.1571,"RA_OF_ASC_NODE":301.4838,"ARG_OF_PERICENTER":123.809,"MEAN_ANOMALY":236.3064,"EPHEMERIS_TYPE":0,"CLASSIFICATION_TYPE":"U","NORAD_CAT_ID":60996,"ELEMENT_SET_NO":999,"REV_AT_EPOCH":8694,"BSTAR":7.373671e-6,"MEAN_MOTION_DOT":3.04e-6,"MEAN_MOTION_DDOT":0},{"OBJECT_NAME":"STARLINK-11260 [DTC]","OBJECT_ID":"2024-158H","EPOCH":"2026-03-05T14:55:04.362528","MEAN_MOTION":15.69723724,"ECCENTRICITY":0.00012261,"INCLINATION":53.1589,"RA_OF_ASC_NODE":279.1538,"ARG_OF_PERICENTER":102.6339,"MEAN_ANOMALY":257.4816,"EPHEMERIS_TYPE":0,"CLASSIFICATION_TYPE":"U","NORAD_CAT_ID":60997,"ELEMENT_SET_NO":999,"REV_AT_EPOCH":8731,"BSTAR":-3.2313043e-5,"MEAN_MOTION_DOT":-4.504e-5,"MEAN_MOTION_DDOT":0},{"OBJECT_NAME":"STARLINK-11287 [DTC]","OBJECT_ID":"2024-158J","EPOCH":"2026-03-05T01:07:14.050560","MEAN_MOTION":15.69695746,"ECCENTRICITY":5.678e-5,"INCLINATION":53.1582,"RA_OF_ASC_NODE":304.2777,"ARG_OF_PERICENTER":55.1054,"MEAN_ANOMALY":305.0017,"EPHEMERIS_TYPE":0,"CLASSIFICATION_TYPE":"U","NORAD_CAT_ID":60998,"ELEMENT_SET_NO":999,"REV_AT_EPOCH":8685,"BSTAR":1.3869415e-5,"MEAN_MOTION_DOT":1.092e-5,"MEAN_MOTION_DDOT":0},{"OBJECT_NAME":"STARLINK-11270 [DTC]","OBJECT_ID":"2024-158K","EPOCH":"2026-03-05T08:38:35.764224","MEAN_MOTION":15.6974762,"ECCENTRICITY":0.00015895,"INCLINATION":53.1554,"RA_OF_ASC_NODE":302.6774,"ARG_OF_PERICENTER":69.2604,"MEAN_ANOMALY":290.8585,"EPHEMERIS_TYPE":0,"CLASSIFICATION_TYPE":"U","NORAD_CAT_ID":60999,"ELEMENT_SET_NO":999,"REV_AT_EPOCH":8690,"BSTAR":0.0018241994,"MEAN_MOTION_DOT":0.00226914,"MEAN_MOTION_DDOT":0},{"OBJECT_NAME":"STARLINK-11290 [DTC]","OBJECT_ID":"2024-158L","EPOCH":"2026-03-05T08:31:32.151072","MEAN_MOTION":15.69694174,"ECCENTRICITY":5.187e-5,"INCLINATION":53.1589,"RA_OF_ASC_NODE":302.6451,"ARG_OF_PERICENTER":179.2407,"MEAN_ANOMALY":180.8612,"EPHEMERIS_TYPE":0,"CLASSIFICATION_TYPE":"U","NORAD_CAT_ID":61000,"ELEMENT_SET_NO":999,"REV_AT_EPOCH":8697,"BSTAR":-4.638601e-6,"MEAN_MOTION_DOT":-1.149e-5,"MEAN_MOTION_DDOT":0},{"OBJECT_NAME":"STARLINK-11274 [DTC]","OBJECT_ID":"2024-158M","EPOCH":"2026-03-03T16:33:35.720928","MEAN_MOTION":15.6971178,"ECCENTRICITY":8.394e-5,"INCLINATION":53.1582,"RA_OF_ASC_NODE":310.7394,"ARG_OF_PERICENTER":42.9834,"MEAN_ANOMALY":317.1249,"EPHEMERIS_TYPE":0,"CLASSIFICATION_TYPE":"U","NORAD_CAT_ID":61001,"ELEMENT_SET_NO":999,"REV_AT_EPOCH":8664,"BSTAR":2.2364818e-5,"MEAN_MOTION_DOT":2.122e-5,"MEAN_MOTION_DDOT":0},{"OBJECT_NAME":"STARLINK-11288 [DTC]","OBJECT_ID":"2024-158N","EPOCH":"2026-03-05T02:03:36.394560","MEAN_MOTION":15.69702104,"ECCENTRICITY":0.00013144,"INCLINATION":53.1564,"RA_OF_ASC_NODE":303.8019,"ARG_OF_PERICENTER":81.5423,"MEAN_ANOMALY":278.5743,"EPHEMERIS_TYPE":0,"CLASSIFICATION_TYPE":"U","NORAD_CAT_ID":61002,"ELEMENT_SET_NO":999,"REV_AT_EPOCH":8686,"BSTAR":6.812623e-6,"MEAN_MOTION_DOT":2.36e-6,"MEAN_MOTION_DDOT":0},{"OBJECT_NAME":"STARLINK-32279","OBJECT_ID":"2024-158P","EPOCH":"2026-03-05T04:52:21.897408","MEAN_MOTION":15.30193547,"ECCENTRICITY":0.00011436,"INCLINATION":53.1597,"RA_OF_ASC_NODE":86.417,"ARG_OF_PERICENTER":85.0032,"MEAN_ANOMALY":275.1099,"EPHEMERIS_TYPE":0,"CLASSIFICATION_TYPE":"U","NORAD_CAT_ID":61003,"ELEMENT_SET_NO":999,"REV_AT_EPOCH":8496,"BSTAR":1.5851418e-5,"MEAN_MOTION_DOT":1.1e-6,"MEAN_MOTION_DDOT":0},{"OBJECT_NAME":"STARLINK-32336","OBJECT_ID":"2024-158Q","EPOCH":"2026-03-05T06:20:20.526144","MEAN_MOTION":15.30192014,"ECCENTRICITY":0.00013675,"INCLINATION":53.1618,"RA_OF_ASC_NODE":86.0917,"ARG_OF_PERICENTER":80.5023,"MEAN_ANOMALY":279.6132,"EPHEMERIS_TYPE":0,"CLASSIFICATION_TYPE":"U","NORAD_CAT_ID":61004,"ELEMENT_SET_NO":999,"REV_AT_EPOCH":8497,"BSTAR":2.150453e-6,"MEAN_MOTION_DOT":-2.96e-6,"MEAN_MOTION_DDOT":0},{"OBJECT_NAME":"STARLINK-32284","OBJECT_ID":"2024-158R","EPOCH":"2026-03-05T04:56:55.165920","MEAN_MOTION":15.30197167,"ECCENTRICITY":0.00011984,"INCLINATION":53.1605,"RA_OF_ASC_NODE":86.4396,"ARG_OF_PERICENTER":92.43,"MEAN_ANOMALY":267.6838,"EPHEMERIS_TYPE":0,"CLASSIFICATION_TYPE":"U","NORAD_CAT_ID":61005,"ELEMENT_SET_NO":999,"REV_AT_EPOCH":8489,"BSTAR":4.8444446e-5,"MEAN_MOTION_DOT":1.076e-5,"MEAN_MOTION_DDOT":0},{"OBJECT_NAME":"STARLINK-32282","OBJECT_ID":"2024-158S","EPOCH":"2026-03-05T06:06:39.809088","MEAN_MOTION":15.30187176,"ECCENTRICITY":0.0001665,"INCLINATION":53.1602,"RA_OF_ASC_NODE":86.0274,"ARG_OF_PERICENTER":99.0777,"MEAN_ANOMALY":261.0412,"EPHEMERIS_TYPE":0,"CLASSIFICATION_TYPE":"U","NORAD_CAT_ID":61006,"ELEMENT_SET_NO":999,"REV_AT_EPOCH":8497,"BSTAR":-8.300379e-6,"MEAN_MOTION_DOT":-6.05e-6,"MEAN_MOTION_DDOT":0},{"OBJECT_NAME":"STARLINK-32360","OBJECT_ID":"2024-158T","EPOCH":"2026-03-05T06:18:41.928192","MEAN_MOTION":15.30184432,"ECCENTRICITY":0.0001561,"INCLINATION":53.1609,"RA_OF_ASC_NODE":70.789,"ARG_OF_PERICENTER":101.1042,"MEAN_ANOMALY":259.0135,"EPHEMERIS_TYPE":0,"CLASSIFICATION_TYPE":"U","NORAD_CAT_ID":61007,"ELEMENT_SET_NO":999,"REV_AT_EPOCH":8511,"BSTAR":-7.084415e-6,"MEAN_MOTION_DOT":-5.69e-6,"MEAN_MOTION_DDOT":0},{"OBJECT_NAME":"STARLINK-32340","OBJECT_ID":"2024-158U","EPOCH":"2026-03-05T05:12:06.098400","MEAN_MOTION":15.30198921,"ECCENTRICITY":0.00012033,"INCLINATION":53.16,"RA_OF_ASC_NODE":86.4301,"ARG_OF_PERICENTER":113.7038,"MEAN_ANOMALY":246.4089,"EPHEMERIS_TYPE":0,"CLASSIFICATION_TYPE":"U","NORAD_CAT_ID":61008,"ELEMENT_SET_NO":999,"REV_AT_EPOCH":8489,"BSTAR":-7.0258992e-5,"MEAN_MOTION_DOT":-2.439e-5,"MEAN_MOTION_DDOT":0},{"OBJECT_NAME":"STARLINK-32347","OBJECT_ID":"2024-158W","EPOCH":"2026-03-05T07:45:16.258176","MEAN_MOTION":15.30205155,"ECCENTRICITY":0.00019095,"INCLINATION":53.1603,"RA_OF_ASC_NODE":85.7449,"ARG_OF_PERICENTER":132.7402,"MEAN_ANOMALY":227.376,"EPHEMERIS_TYPE":0,"CLASSIFICATION_TYPE":"U","NORAD_CAT_ID":61010,"ELEMENT_SET_NO":999,"REV_AT_EPOCH":8491,"BSTAR":-0.0001742142,"MEAN_MOTION_DOT":-5.517e-5,"MEAN_MOTION_DDOT":0},{"OBJECT_NAME":"STARLINK-11286 [DTC]","OBJECT_ID":"2024-164A","EPOCH":"2026-03-05T10:56:06.801792","MEAN_MOTION":15.69704182,"ECCENTRICITY":0.00012454,"INCLINATION":53.1594,"RA_OF_ASC_NODE":332.1612,"ARG_OF_PERICENTER":89.8708,"MEAN_ANOMALY":270.2453,"EPHEMERIS_TYPE":0,"CLASSIFICATION_TYPE":"U","NORAD_CAT_ID":61050,"ELEMENT_SET_NO":999,"REV_AT_EPOCH":8475,"BSTAR":5.240358e-6,"MEAN_MOTION_DOT":4.6e-7,"MEAN_MOTION_DDOT":0}]
